OBJECT_NAME,OBJECT_ID,EPOCH,MEAN_MOTION,ECCENTRICITY,INCLINATION,RA_OF_ASC_NODE,ARG_OF_PERICENTER,MEAN_ANOMALY,EPHEMERIS_TYPE,CLASSIFICATION_TYPE,NORAD_CAT_ID,ELEMENT_SET_NO,REV_AT_EPOCH,BSTAR,MEAN_MOTION_DOT,MEAN_MOTION_DDOT
STARLINK-37577,2026-127K,2026-06-26T17:21:37.432224,15.75281172,.0001086,53.1584,214.5963,42.9481,317.1624,0,U,69452,999,291,.77089E-3,.11943E-2,0
STARLINK-37500,2026-127L,2026-06-26T13:01:05.328192,15.75270085,.0001356,53.1582,215.6048,125.9573,234.1574,0,U,69453,999,288,.80952E-3,.125476E-2,0
STARLINK-37575,2026-127M,2026-06-26T15:44:11.584896,15.75782968,.0000386,53.1582,214.8835,113.9448,246.1613,0,U,69454,999,290,-.54582E-2,-.782339E-2,0
STARLINK-37642,2026-127N,2026-06-26T16:00:03.000096,15.75154899,.0000996,53.1574,215.0400,75.6002,244.0367,0,U,69455,999,416,.24932E-3,.37609E-3,0
STARLINK-37513,2026-127P,2026-06-26T15:29:21.026400,15.80963311,.0001257,53.1570,214.8121,142.9204,217.1906,0,U,69456,999,290,.10374E-2,.209987E-2,0
STARLINK-37563,2026-127Q,2026-06-26T16:00:03.000096,15.75275311,.0001074,53.1589,214.8810,87.1310,309.6610,0,U,69457,999,416,-.46644E-3,-.71648E-3,0
STARLINK-37565,2026-127R,2026-06-26T14:05:49.992288,15.75282691,.00009,53.1588,215.1644,78.2455,281.8667,0,U,69458,999,289,.76822E-3,.119016E-2,0
STARLINK-37498,2026-127S,2026-06-26T16:00:03.000096,15.75282550,.0001024,53.1573,214.9827,84.1126,263.0296,0,U,69459,999,416,-.50696E-3,-.77786E-3,0
STARLINK-37384,2026-127T,2026-06-26T16:00:03.000096,15.75271542,.0001032,53.1593,214.8244,79.7762,344.6333,0,U,69460,999,416,-.43477E-3,-.66853E-3,0
STARLINK-37707,2026-127U,2026-06-26T16:00:03.000096,15.75261358,.0001171,53.1593,214.7740,82.2978,6.0022,0,U,69461,999,416,-.28855E-3,-.4468E-3,0
STARLINK-37525,2026-127V,2026-06-26T15:30:39.614976,15.75283291,.0001109,53.1592,214.8177,77.5523,282.5621,0,U,69462,999,290,.96939E-3,.150927E-2,0
STARLINK-37526,2026-127W,2026-06-26T12:21:52.555104,15.75277955,.0001401,53.1586,215.4199,72.5843,287.5331,0,U,69463,999,288,.11784E-2,.184304E-2,0
STARLINK-37574,2026-127X,2026-06-26T16:00:03.000096,15.75262590,.0001259,53.1589,214.7204,73.0815,40.9715,0,U,69464,999,416,-.30117E-3,-.466E-3,0
STARLINK-37535,2026-127Y,2026-06-26T13:52:45.780960,15.75287697,.0001115,53.1582,215.1010,100.0590,260.0556,0,U,69465,999,289,.10413E-2,.162419E-2,0
STARLINK-37583,2026-127Z,2026-06-26T13:20:44.708064,15.80949469,.0001291,53.1580,214.9519,101.0218,259.0950,0,U,69466,999,289,.11344E-2,.230073E-2,0
STARLINK-37546,2026-127AA,2026-06-26T16:00:03.000096,15.75259912,.000105,53.1579,214.6121,77.4005,88.1571,0,U,69467,999,417,-.21316E-3,-.33216E-3,0
STARLINK-37532,2026-127AB,2026-06-26T13:19:05.397312,15.80938859,.0001162,53.1579,214.9436,125.8693,234.2437,0,U,69468,999,289,.82183E-3,.165142E-2,0
STARLINK-37708,2026-127AC,2026-06-26T16:00:03.000096,15.75282737,.0001244,53.1579,214.6076,70.2838,97.1320,0,U,69469,999,417,-.52485E-3,-.80485E-3,0
STARLINK-37686,2026-127AD,2026-06-26T16:00:03.000096,15.75242465,.0001041,53.1585,214.5585,70.9058,120.4102,0,U,69470,999,417,.16476E-4,.1887E-4,0
STARLINK-37451,2026-127AE,2026-06-26T13:11:19.243392,15.80956296,.0000797,53.1581,214.9067,119.3972,240.7131,0,U,69471,999,289,.10563E-2,.21384E-2,0
DTC TEST OBJECT A,2026-128A,2026-06-26T14:39:33.867360,15.56283441,.0009682,54.9935,261.4803,323.1685,36.8685,0,U,69472,999,269,.33192E-3,.23342E-3,0
DTC TEST OBJECT B,2026-128B,2026-06-26T14:32:47.980032,15.56844847,.0009683,55.0023,261.4675,323.1000,36.9369,0,U,69473,999,268,.41405E-3,.29887E-3,0
TJS-25,2026-129A,2026-06-26T18:15:29.145600,1.00273861,.0002247,5.9743,330.2696,302.2289,36.5058,0,U,69474,999,15,0,-.357E-5,0
STARLINK-37816,2026-131A,2026-06-26T16:00:03.000096,15.80832079,.000085,97.2832,198.4946,105.7619,157.4903,0,U,69478,999,353,.42128E-4,.7941E-4,0
STARLINK-37878,2026-131B,2026-06-26T16:00:03.000096,15.80805546,.0001124,97.2836,198.4817,87.4563,143.8917,0,U,69479,999,241,.42401E-3,.81802E-3,0
STARLINK-37817,2026-131C,2026-06-26T16:00:03.000096,15.80840261,.0000773,97.2841,198.4986,102.8938,168.9068,0,U,69480,999,353,.42401E-5,.671E-5,0
STARLINK-37727,2026-131D,2026-06-26T16:00:03.000096,15.80843640,.000141,97.2841,198.5000,94.4635,181.6055,0,U,69481,999,353,.41515E-4,.7827E-4,0
STARLINK-37814,2026-131E,2026-06-26T16:00:03.000096,15.80826618,.0000819,97.2843,198.5020,102.8473,177.5039,0,U,69482,999,353,.16187E-3,.30989E-3,0
STARLINK-37869,2026-131F,2026-06-26T16:00:03.000096,15.80830097,.0000702,97.2845,198.5038,106.6137,178.0075,0,U,69483,999,353,.17264E-3,.33072E-3,0
STARLINK-37873,2026-131G,2026-06-26T16:00:03.000096,15.80869259,.0001561,97.2843,198.5051,93.3698,195.5156,0,U,69484,999,353,-.31535E-3,-.6028E-3,0
