STARLINK-37577          
1 69452U 26127K   26177.72334991  .00119430  00000+0  77089-3 0  9996
2 69452  53.1584 214.5963 0001086  42.9481 317.1624 15.75281172  2912
STARLINK-37500          
1 69453U 26127L   26177.54242278  .00125476  00000+0  80952-3 0  9993
2 69453  53.1582 215.6048 0001356 125.9573 234.1574 15.75270085  2880
STARLINK-37575          
1 69454U 26127M   26177.65568964 -.00782339  00000+0 -54582-2 0  9997
2 69454  53.1582 214.8835 0000386 113.9448 246.1613 15.75782968  2904
STARLINK-37642          
1 69455U 26127N   26177.66670139  .00037609  00000+0  24932-3 0  9995
2 69455  53.1574 215.0400 0000996  75.6002 244.0367 15.75154899  4163
STARLINK-37513          
1 69456U 26127P   26177.64538225  .00209987  00000+0  10374-2 0  9997
2 69456  53.1570 214.8121 0001257 142.9204 217.1906 15.80963311  2903
STARLINK-37563          
1 69457U 26127Q   26177.66670139 -.00071648  00000+0 -46644-3 0  9994
2 69457  53.1589 214.8810 0001074  87.1310 309.6610 15.75275311  4163
STARLINK-37565          
1 69458U 26127R   26177.58738417  .00119016  00000+0  76822-3 0  9991
2 69458  53.1588 215.1644 0000900  78.2455 281.8667 15.75282691  2890
STARLINK-37498          
1 69459U 26127S   26177.66670139 -.00077786  00000+0 -50696-3 0  9997
2 69459  53.1573 214.9827 0001024  84.1126 263.0296 15.75282550  4160
STARLINK-37384          
1 69460U 26127T   26177.66670139 -.00066853  00000+0 -43477-3 0  9991
2 69460  53.1593 214.8244 0001032  79.7762 344.6333 15.75271542  4168
STARLINK-37707          
1 69461U 26127U   26177.66670139 -.00044680  00000+0 -28855-3 0  9999
2 69461  53.1593 214.7740 0001171  82.2978   6.0022 15.75261358  4169
STARLINK-37525          
1 69462U 26127V   26177.64629184  .00150927  00000+0  96939-3 0  9990
2 69462  53.1592 214.8177 0001109  77.5523 282.5621 15.75283291  2904
STARLINK-37526          
1 69463U 26127W   26177.51519161  .00184304  00000+0  11784-2 0  9990
2 69463  53.1586 215.4199 0001401  72.5843 287.5331 15.75277955  2884
STARLINK-37574          
1 69464U 26127X   26177.66670139 -.00046600  00000+0 -30117-3 0  9990
2 69464  53.1589 214.7204 0001259  73.0815  40.9715 15.75262590  4162
STARLINK-37535          
1 69465U 26127Y   26177.57830765  .00162419  00000+0  10413-2 0  9995
2 69465  53.1582 215.1010 0001115 100.0590 260.0556 15.75287697  2899
STARLINK-37583          
1 69466U 26127Z   26177.55607301  .00230073  00000+0  11344-2 0  9998
2 69466  53.1580 214.9519 0001291 101.0218 259.0950 15.80949469  2896
STARLINK-37546          
1 69467U 26127AA  26177.66670139 -.00033216  00000+0 -21316-3 0  9993
2 69467  53.1579 214.6121 0001050  77.4005  88.1571 15.75259912  4178
STARLINK-37532          
1 69468U 26127AB  26177.55492358  .00165142  00000+0  82183-3 0  9998
2 69468  53.1579 214.9436 0001162 125.8693 234.2437 15.80938859  2898
STARLINK-37708          
1 69469U 26127AC  26177.66670139 -.00080485  00000+0 -52485-3 0  9996
2 69469  53.1579 214.6076 0001244  70.2838  97.1320 15.75282737  4172
STARLINK-37686          
1 69470U 26127AD  26177.66670139  .00001887  00000+0  16476-4 0  9996
2 69470  53.1585 214.5585 0001041  70.9058 120.4102 15.75242465  4173
STARLINK-37451          
1 69471U 26127AE  26177.54952828  .00213840  00000+0  10563-2 0  9995
2 69471  53.1581 214.9067 0000797 119.3972 240.7131 15.80956296  2894
DTC TEST OBJECT A       
1 69472U 26128A   26177.61080865  .00023342  00000+0  33192-3 0  9998
2 69472  54.9935 261.4803 0009682 323.1685  36.8685 15.56283441  2694
DTC TEST OBJECT B       
1 69473U 26128B   26177.60611088  .00029887  00000+0  41405-3 0  9991
2 69473  55.0023 261.4675 0009683 323.1000  36.9369 15.56844847  2686
TJS-25                  
1 69474U 26129A   26177.76075400 -.00000357  00000+0  00000+0 0  9996
2 69474   5.9743 330.2696 0002247 302.2289  36.5058  1.00273861   151
STARLINK-37816          
1 69478U 26131A   26177.66670139  .00007941  00000+0  42128-4 0  9999
2 69478  97.2832 198.4946 0000850 105.7619 157.4903 15.80832079  3533
STARLINK-37878          
1 69479U 26131B   26177.66670139  .00081802  00000+0  42401-3 0  9991
2 69479  97.2836 198.4817 0001124  87.4563 143.8917 15.80805546  2413
STARLINK-37817          
1 69480U 26131C   26177.66670139  .00000671  00000+0  42401-5 0  9990
2 69480  97.2841 198.4986 0000773 102.8938 168.9068 15.80840261  3537
STARLINK-37727          
1 69481U 26131D   26177.66670139  .00007827  00000+0  41515-4 0  9995
2 69481  97.2841 198.5000 0001410  94.4635 181.6055 15.80843640  3537
STARLINK-37814          
1 69482U 26131E   26177.66670139  .00030989  00000+0  16187-3 0  9997
2 69482  97.2843 198.5020 0000819 102.8473 177.5039 15.80826618  3530
STARLINK-37869          
1 69483U 26131F   26177.66670139  .00033072  00000+0  17264-3 0  9991
2 69483  97.2845 198.5038 0000702 106.6137 178.0075 15.80830097  3534
STARLINK-37873          
1 69484U 26131G   26177.66670139 -.00060280  00000+0 -31535-3 0  9992
2 69484  97.2843 198.5051 0001561  93.3698 195.5156 15.80869259  3532
